[{"OBJECT_NAME":"STARLINK-35693","OBJECT_ID":"2025-263F","EPOCH":"2026-03-09T02:43:04.851840","MEAN_MOTION":15.27570779,"ECCENTRICITY":0.00015218,"INCLINATION":43.0037,"RA_OF_ASC_NODE":353.707,"ARG_OF_PERICENTER":279.7392,"MEAN_ANOMALY":80.3287,"EPHEMERIS_TYPE":0,"CLASSIFICATION_TYPE":"U","NORAD_CAT_ID":66490,"ELEMENT_SET_NO":999,"REV_AT_EPOCH":1881,"BSTAR":0.00097873932,"MEAN_MOTION_DOT":0.00026761,"MEAN_MOTION_DDOT":0},{"OBJECT_NAME":"KUIPER-00276","OBJECT_ID":"2026-030AG","EPOCH":"2026-03-09T22:00:01.999584","MEAN_MOTION":15.30162454,"ECCENTRICITY":0.00186471,"INCLINATION":51.8824,"RA_OF_ASC_NODE":218.7283,"ARG_OF_PERICENTER":66.9346,"MEAN_ANOMALY":101.1527,"EPHEMERIS_TYPE":0,"CLASSIFICATION_TYPE":"U","NORAD_CAT_ID":67794,"ELEMENT_SET_NO":999,"REV_AT_EPOCH":482,"BSTAR":0.0021152378,"MEAN_MOTION_DOT":0.00063116,"MEAN_MOTION_DDOT":0}]
